NORAD_CAT_ID,OBJECT_NAME,OBJECT_TYPE,EPOCH,MEAN_MOTION,ECCENTRICITY,INCLINATION,RA_OF_ASC_NODE,ARG_OF_PERICENTER,MEAN_ANOMALY,BSTAR,MEAN_MOTION_DOT,MEAN_MOTION_DDOT,TLE_LINE0,TLE_LINE1,TLE_LINE2,SEMIMAJOR_AXIS,PERIOD,APOGEE,PERIGEE,DECAYED
53036.0,STARLINK-4155,PAYLOAD,2023-11-05 17:16:11,15.08847975,0.0001785,53.2164,312.2333,85.4787,274.6409,0.00013134,1.803e-05,0.0,0 STARLINK-4155,1 53036U 22076BC  23309.71957731  .00001803  00000-0  13134-3 0  9998,2 53036  53.2164 312.2333 0001785  85.4787 274.6409 15.08847975 74510,6917.856,95.437,540.956,538.486,0.0
53036.0,STARLINK-4155,PAYLOAD,2023-11-06 10:45:25,15.08882249,0.0002108,53.2163,308.962,86.5539,273.5694,0.0016495,0.00026092,0.0,0 STARLINK-4155,1 53036U 22076BC  23310.44820907  .00026092  00000-0  16495-2 0  9993,2 53036  53.2163 308.9620 0002108  86.5539 273.5694 15.08882249 74626,6917.751,95.435,541.075,538.158,0.0
53036.0,STARLINK-4155,PAYLOAD,2023-11-07 04:14:42,15.08787657,0.0001954,53.2153,305.6925,133.3745,226.741,0.0011017,0.00017264,0.0,0 STARLINK-4155,1 53036U 22076BC  23311.17688067  .00017264  00000-0  11017-2 0  9999,2 53036  53.2153 305.6925 0001954 133.3745 226.7410 15.08787657 74730,6918.04,95.441,541.257,538.554,0.0
53036.0,STARLINK-4155,PAYLOAD,2023-11-07 07:25:29,15.08775347,0.0001136,53.2155,305.0974,80.9327,279.1794,0.0012948,0.00020342,0.0,0 STARLINK-4155,1 53036U 22076BC  23311.30936894  .00020342  00000-0  12948-2 0  9993,2 53036  53.2155 305.0974 0001136  80.9327 279.1794 15.08775347 74757,6918.078,95.442,540.729,539.157,0.0
53036.0,STARLINK-4155,PAYLOAD,2023-11-07 16:57:48,15.08806068,0.0001136,53.2156,303.3137,85.5425,274.5697,0.0018843,0.000298,0.0,0 STARLINK-4155,1 53036U 22076BC  23311.70681606  .00029800  00000-0  18843-2 0  9993,2 53036  53.2156 303.3137 0001136  85.5425 274.5697 15.08806068 74813,6917.984,95.44,540.635,539.063,0.0
53036.0,STARLINK-4155,PAYLOAD,2023-11-08 08:51:39,15.08893889,0.0001364,53.215,300.3431,66.9905,293.1231,0.0026154,0.00041644,0.0,0 STARLINK-4155,1 53036U 22076BC  23312.36920439  .00041644  00000-0  26154-2 0  9990,2 53036  53.2150 300.3431 0001364  66.9905 293.1231 15.08893889 74919,6917.716,95.434,540.524,538.637,0.0
53036.0,STARLINK-4155,PAYLOAD,2023-11-09 03:56:15,15.08888134,0.0001352,53.2159,296.7744,73.1058,287.0082,0.0020346,0.00032284,0.0,0 STARLINK-4155,1 53036U 22076BC  23313.16407242  .00032284  00000-0  20346-2 0  9998,2 53036  53.2159 296.7744 0001352  73.1058 287.0082 15.08888134 75036,6917.733,95.435,540.534,538.663,0.0
53036.0,STARLINK-4155,PAYLOAD,2023-11-09 08:42:24,15.08891859,0.0001361,53.2163,295.8806,87.129,272.9858,0.0017888,0.00028336,0.0,0 STARLINK-4155,1 53036U 22076BC  23313.36278582  .00028336  00000-0  17888-2 0  9993,2 53036  53.2163 295.8806 0001361  87.1290 272.9858 15.08891859 74607,6917.722,95.434,540.528,538.645,0.0
53036.0,STARLINK-4155,PAYLOAD,2023-11-10 03:47:02,15.08853014,0.0001711,53.2165,292.3119,93.1729,266.9458,0.0013357,0.00021041,0.0,0 STARLINK-4155,1 53036U 22076BC  23314.15766883  .00021041  00000-0  13357-2 0  9990,2 53036  53.2165 292.3119 0001711  93.1729 266.9458 15.08853014 75185,6917.841,95.437,540.889,538.522,0.0
53036.0,STARLINK-4155,PAYLOAD,2023-11-10 08:33:11,15.08848908,0.0001796,53.2168,291.4172,84.8156,275.3041,0.00086544,0.00013516,0.0,0 STARLINK-4155,1 53036U 22076BC  23314.35638839  .00013516  00000-0  86544-3 0  9998,2 53036  53.2168 291.4172 0001796  84.8156 275.3041 15.08848908 75213,6917.853,95.437,540.961,538.476,0.0
53036.0,STARLINK-4155,PAYLOAD,2023-11-11 03:37:49,15.08844648,0.000172,53.216,287.8447,92.1315,267.9874,6.5513e-07,-2.78e-06,0.0,0 STARLINK-4155,1 53036U 22076BC  23315.15126827 -.00000278  00000-0  65513-6 0  9994,2 53036  53.2160 287.8447 0001720  92.1315 267.9874 15.08844648 75336,6917.866,95.437,540.921,538.541,0.0
53036.0,STARLINK-4155,PAYLOAD,2023-11-11 08:23:59,15.08844436,0.0001763,53.216,286.9531,92.1127,268.0067,5.8535e-05,6.44e-06,0.0,0 STARLINK-4155,1 53036U 22076BC  23315.34998854  .00000644  00000-0  58535-4 0  9992,2 53036  53.2160 286.9531 0001763  92.1127 268.0067 15.08844436 74901,6917.867,95.437,540.951,538.512,0.0
53036.0,STARLINK-4155,PAYLOAD,2023-11-11 14:45:31,15.08847476,0.000174,53.216,285.7641,93.0334,267.0857,2.1206e-05,4.9e-07,0.0,0 STARLINK-4155,1 53036U 22076BC  23315.61494650  .00000049  00000-0  21206-4 0  9991,2 53036  53.2160 285.7641 0001740  93.0334 267.0857 15.08847476 74942,6917.858,95.437,540.926,538.519,0.0
53036.0,STARLINK-4155,PAYLOAD,2023-11-12 03:28:36,15.08836843,0.0001804,53.2155,283.3899,100.1231,259.9965,-7.1002e-06,-4.01e-06,0.0,0 STARLINK-4155,1 53036U 22076BC  23316.14487253 -.00000401  00000-0 -71002-5 0  9995,2 53036  53.2155 283.3899 0001804 100.1231 259.9965 15.08836843 75488,6917.89,95.438,541.003,538.507,0.0
53036.0,STARLINK-4155,PAYLOAD,2023-11-12 05:04:00,15.08839512,0.0001814,53.2157,283.0928,97.3582,262.7617,3.8475e-05,3.24e-06,0.0,0 STARLINK-4155,1 53036U 22076BC  23316.21111189  .00000324  00000-0  38475-4 0  9993,2 53036  53.2157 283.0928 0001814  97.3582 262.7617 15.08839512 75030,6917.882,95.438,541.002,538.492,0.0
53036.0,STARLINK-4155,PAYLOAD,2023-11-12 14:36:19,15.08838243,0.0001816,53.2156,281.3089,98.2909,261.8289,7.0871e-06,-1.75e-06,0.0,0 STARLINK-4155,1 53036U 22076BC  23316.60855343 -.00000175  00000-0  70871-5 0  9995,2 53036  53.2156 281.3089 0001816  98.2909 261.8289 15.08838243 75094,6917.886,95.438,541.007,538.494,0.0
53036.0,STARLINK-4155,PAYLOAD,2023-11-13 04:54:47,15.0884483,0.0001678,53.2155,278.6308,99.0856,261.0326,0.0001581,2.229e-05,0.0,0 STARLINK-4155,1 53036U 22076BC  23317.20471162  .00002229  00000-0  15810-3 0  9996,2 53036  53.2155 278.6308 0001678  99.0856 261.0326 15.08844830 75646,6917.866,95.437,540.891,538.57,0.0
53036.0,STARLINK-4155,PAYLOAD,2023-11-13 22:24:01,15.08839343,0.0001596,53.2164,275.3591,95.8295,264.2879,0.00017499,2.498e-05,0.0,0 STARLINK-4155,1 53036U 22076BC  23317.93335605  .00002498  00000-0  17499-3 0  9990,2 53036  53.2164 275.3591 0001596  95.8295 264.2879 15.08839343 75296,6917.882,95.438,540.851,538.643,0.0
53036.0,STARLINK-4155,PAYLOAD,2023-11-14 03:10:11,15.0884244,0.000163,53.2159,274.467,92.7272,267.3907,0.00011815,1.593e-05,0.0,0 STARLINK-4155,1 53036U 22076BC  23318.13207462  .00001593  00000-0  11815-3 0  9993,2 53036  53.2159 274.4670 0001630  92.7272 267.3907 15.08842440 75780,6917.873,95.437,540.866,538.61,0.0
53036.0,STARLINK-4155,PAYLOAD,2023-11-14 14:17:53,15.08840259,0.000185,53.2168,272.3846,82.5392,277.581,7.3159e-05,8.76e-06,0.0,0 STARLINK-4155,1 53036U 22076BC  23318.59575581  .00000876  00000-0  73159-4 0  9996,2 53036  53.2168 272.3846 0001850  82.5392 277.5810 15.08840259 75395,6917.88,95.438,541.024,538.465,0.0
53036.0,STARLINK-4155,PAYLOAD,2023-11-15 03:00:58,15.08840224,0.0002013,53.2185,270.0038,76.6083,283.5133,1.6644e-05,-2.3e-07,0.0,0 STARLINK-4155,1 53036U 22076BC  23319.12568034 -.00000023  00000-0  16644-4 0  9992,2 53036  53.2185 270.0038 0002013  76.6083 283.5133 15.08840224 75932,6917.88,95.438,541.137,538.352,0.0
53036.0,STARLINK-4155,PAYLOAD,2023-11-15 04:36:21,15.08840032,0.000178,53.217,269.7104,87.4026,272.717,3.6878e-05,2.99e-06,0.0,0 STARLINK-4155,1 53036U 22076BC  23319.19192010  .00000299  00000-0  36878-4 0  9991,2 53036  53.2170 269.7104 0001780  87.4026 272.7170 15.08840032 75480,6917.88,95.438,540.977,538.514,0.0
53036.0,STARLINK-4155,PAYLOAD,2023-11-16 06:02:31,15.0884627,0.0001921,53.2186,264.9497,97.7841,262.337,7.031e-05,8.31e-06,0.0,0 STARLINK-4155,1 53036U 22076BC  23320.25175460  .00000831  00000-0  70310-4 0  9991,2 53036  53.2186 264.9497 0001921  97.7841 262.3370 15.08846270 76102,6917.861,95.437,541.055,538.397,0.0
53036.0,STARLINK-4155,PAYLOAD,2023-11-16 20:21:00,15.08823918,0.0001691,53.2182,262.2712,90.3917,269.7269,0.00030599,4.583e-05,0.0,0 STARLINK-4155,1 53036U 22076BC  23320.84792157  .00004583  00000-0  30599-3 0  9996,2 53036  53.2182 262.2712 0001691  90.3917 269.7269 15.08823918 75736,6917.93,95.439,540.964,538.625,0.0
53036.0,STARLINK-4155,PAYLOAD,2023-11-17 05:53:18,15.08851099,0.0001727,53.218,260.4871,102.9523,257.1662,1.1658e-05,-1.03e-06,0.0,0 STARLINK-4155,1 53036U 22076BC  23321.24535059 -.00000103  00000-0  11658-4 0  9998,2 53036  53.2180 260.4871 0001727 102.9523 257.1662 15.08851099 75798,6917.846,95.437,540.906,538.517,0.0
53036.0,STARLINK-4155,PAYLOAD,2023-11-17 20:11:47,15.08834346,0.0001689,53.2168,257.8098,109.7726,250.3448,-4.1743e-06,-3.54e-06,0.0,0 STARLINK-4155,1 53036U 22076BC  23321.84152170 -.00000354  00000-0 -41743-5 0  9991,2 53036  53.2168 257.8098 0001689 109.7726 250.3448 15.08834346 76347,6917.898,95.438,540.931,538.594,0.0
53036.0,STARLINK-4155,PAYLOAD,2023-11-18 05:44:06,15.08837022,0.000168,53.2166,256.0277,105.0662,255.0516,-1.0483e-05,-4.55e-06,0.0,0 STARLINK-4155,1 53036U 22076BC  23322.23896120 -.00000455  00000-0 -10483-4 0  9993,2 53036  53.2166 256.0277 0001680 105.0662 255.0516 15.08837022 75941,6917.889,95.438,540.917,538.592,0.0
53036.0,STARLINK-4155,PAYLOAD,2023-11-19 02:24:06,15.08845714,0.0001731,53.2184,252.1643,96.3702,263.7488,7.9073e-08,-2.87e-06,0.0,0 STARLINK-4155,1 53036U 22076BC  23323.10007552 -.00000287  00000-0  79073-7 0  9998,2 53036  53.2184 252.1643 0001731  96.3702 263.7488 15.08845714 76536,6917.863,95.437,540.925,538.53,0.0
53036.0,STARLINK-4155,PAYLOAD,2023-11-19 11:56:25,15.08844731,0.0001759,53.2185,250.3796,84.7597,275.3596,3.6318e-05,2.9e-06,0.0,0 STARLINK-4155,1 53036U 22076BC  23323.49751492  .00000290  00000-0  36318-4 0  9994,2 53036  53.2185 250.3796 0001759  84.7597 275.3596 15.08844731 76132,6917.866,95.437,540.948,538.514,0.0
53036.0,STARLINK-4155,PAYLOAD,2023-11-19 19:53:21,15.08838999,0.0002022,53.2184,248.8938,82.0789,278.0433,7.2938e-05,8.73e-06,0.0,0 STARLINK-4155,1 53036U 22076BC  23323.82871972  .00000873  00000-0  72938-4 0  9992,2 53036  53.2184 248.8938 0002022  82.0789 278.0433 15.08838999 76644,6917.883,95.438,541.147,538.35,0.0
